[{"OBJECT_NAME":"JILIN-1 07","OBJECT_ID":"2018-008E","EPOCH":"2026-03-09T22:24:26.445888","MEAN_MOTION":15.32987507,"ECCENTRICITY":0.00101791,"INCLINATION":97.1876,"RA_OF_ASC_NODE":91.5817,"ARG_OF_PERICENTER":62.7832,"MEAN_ANOMALY":297.4447,"EPHEMERIS_TYPE":0,"CLASSIFICATION_TYPE":"U","NORAD_CAT_ID":43159,"ELEMENT_SET_NO":999,"REV_AT_EPOCH":44978,"BSTAR":0.00036439521,"MEAN_MOTION_DOT":0.00011559,"MEAN_MOTION_DDOT":0},{"OBJECT_NAME":"STARLINK-30518","OBJECT_ID":"2023-156B","EPOCH":"2026-03-09T08:07:20.501472","MEAN_MOTION":15.30196225,"ECCENTRICITY":0.00015442,"INCLINATION":53.1604,"RA_OF_ASC_NODE":79.9129,"ARG_OF_PERICENTER":112.8694,"MEAN_ANOMALY":247.247,"EPHEMERIS_TYPE":0,"CLASSIFICATION_TYPE":"U","NORAD_CAT_ID":58029,"ELEMENT_SET_NO":999,"REV_AT_EPOCH":13626,"BSTAR":0.00025487005,"MEAN_MOTION_DOT":7.196e-5,"MEAN_MOTION_DDOT":0}]
